IDEFIX & ARIANE 42P R/B 
1 27422U 02021B   26064.58034120  .00000414  00000+0  17379-3 0  9991
2 27422  98.5867   3.2358 0011334 194.4976 165.5884 14.31022769243433
AQUA                    
1 27424U 02022A   26064.66831787  .00001558  00000+0  32078-3 0  9990
2 27424  98.4169  31.9601 0000608  62.8235 112.9135 14.61965883268142
CZ-4B R/B               
1 27432U 02024C   26064.63446895  .00000077  00000+0  62407-4 0  9995
2 27432  98.8847 118.0614 0050671  35.6334 117.2258 14.14546940228666
MIDORI II (ADEOS-II)    
1 27597U 02056A   26064.60341668  .00000445  00000+0  19287-3 0  9997
2 27597  98.7764  23.0529 0001738  48.3112 311.8218 14.29281477209710
H-2A R/B                
1 27601U 02056E   26064.53077986  .00000382  00000+0  14828-3 0  9990
2 27601  98.3196  25.0548 0070248 173.0125 303.1477 14.33757611213513
CZ-4B R/B               
1 28059U 03049C   26064.60128381  .00000578  00000+0  14424-3 0  9994
2 28059  98.6876  59.3457 0047109 243.6440 115.9914 14.55015808186009
CZ-2C R/B               
1 28222U 04012C   26064.45094039  .00064739  00000+0  68298-3 0  9999
2 28222  97.7238 129.3437 0013136 327.0449  32.9988 15.63926274203612
SL-16 R/B               
1 28353U 04021B   26064.56782330 -.00000191  00000+0 -74389-4 0  9997
2 28353  70.9991 241.1427 0003807  17.4945 342.6308 14.14599243122257
CZ-4B R/B               
1 28415U 04035C   26064.52452831  .00009675  00000+0  34138-3 0  9998
2 28415  97.3499  98.8166 0031429 346.6915  13.3493 15.28973488179278
CZ-2C R/B               
1 28480U 04046B   26064.20831619  .00000157  00000+0  73366-4 0  9995
2 28480  98.1987 339.4710 0139622 167.6551 192.8111 14.26990318107865
ARIANE 5 R/B            
1 28499U 04049H   26064.45582592  .00001132  00000+0  13087-3 0  9995
2 28499  98.2618 232.7545 0084238   5.6646 354.5500 14.85257082145169
CZ-2D R/B               
1 28738U 05024B   26064.60392122  .00045815  00000+0  57191-3 0  9990
2 28738  97.3595  79.6011 0006429  57.0193 303.1681 15.59717554139147
