CCSDS_OMM_VERS = 2.0
CREATION_DATE  = 
ORIGINATOR     = 

OBJECT_NAME    = IDEFIX & ARIANE 42P R/B
OBJECT_ID      = 2002-021B
CENTER_NAME    = EARTH
REF_FRAME      = TEME
TIME_SYSTEM    = UTC
MEAN_ELEMENT_THEORY = SGP/SGP4

EPOCH          = 2026-03-05T13:55:41.479680
MEAN_MOTION    = 14.31022769
ECCENTRICITY   = .00113348
INCLINATION    = 98.5867
RA_OF_ASC_NODE = 3.2358
ARG_OF_PERICENTER = 194.4976
MEAN_ANOMALY   = 165.5884

EPHEMERIS_TYPE = 0
CLASSIFICATION_TYPE = U
NORAD_CAT_ID   = 27422
ELEMENT_SET_NO = 999
REV_AT_EPOCH   = 24343
BSTAR          = .17379362E-3
MEAN_MOTION_DOT = .414E-5
MEAN_MOTION_DDOT = 0

CCSDS_OMM_VERS = 2.0
CREATION_DATE  = 
ORIGINATOR     = 

OBJECT_NAME    = AQUA
OBJECT_ID      = 2002-022A
CENTER_NAME    = EARTH
REF_FRAME      = TEME
TIME_SYSTEM    = UTC
MEAN_ELEMENT_THEORY = SGP/SGP4

EPOCH          = 2026-03-05T16:02:22.663968
MEAN_MOTION    = 14.61965883
ECCENTRICITY   = .00006082
INCLINATION    = 98.4169
RA_OF_ASC_NODE = 31.9601
ARG_OF_PERICENTER = 62.8235
MEAN_ANOMALY   = 112.9135

EPHEMERIS_TYPE = 0
CLASSIFICATION_TYPE = U
NORAD_CAT_ID   = 27424
ELEMENT_SET_NO = 999
REV_AT_EPOCH   = 26814
BSTAR          = .32077634E-3
MEAN_MOTION_DOT = .1558E-4
MEAN_MOTION_DDOT = 0

CCSDS_OMM_VERS = 2.0
CREATION_DATE  = 
ORIGINATOR     = 

OBJECT_NAME    = CZ-4B R/B
OBJECT_ID      = 2002-024C
CENTER_NAME    = EARTH
REF_FRAME      = TEME
TIME_SYSTEM    = UTC
MEAN_ELEMENT_THEORY = SGP/SGP4

EPOCH          = 2026-03-05T15:13:38.117280
MEAN_MOTION    = 14.14546940
ECCENTRICITY   = .0050671
INCLINATION    = 98.8847
RA_OF_ASC_NODE = 118.0614
ARG_OF_PERICENTER = 35.6334
MEAN_ANOMALY   = 117.2258

EPHEMERIS_TYPE = 0
CLASSIFICATION_TYPE = U
NORAD_CAT_ID   = 27432
ELEMENT_SET_NO = 999
REV_AT_EPOCH   = 22866
BSTAR          = .62406576E-4
MEAN_MOTION_DOT = .77E-6
MEAN_MOTION_DDOT = 0

CCSDS_OMM_VERS = 2.0
CREATION_DATE  = 
ORIGINATOR     = 

OBJECT_NAME    = MIDORI II (ADEOS-II)
OBJECT_ID      = 2002-056A
CENTER_NAME    = EARTH
REF_FRAME      = TEME
TIME_SYSTEM    = UTC
MEAN_ELEMENT_THEORY = SGP/SGP4

EPOCH          = 2026-03-05T14:28:55.201152
MEAN_MOTION    = 14.29281477
ECCENTRICITY   = .00017386
INCLINATION    = 98.7764
RA_OF_ASC_NODE = 23.0529
ARG_OF_PERICENTER = 48.3112
MEAN_ANOMALY   = 311.8218

EPHEMERIS_TYPE = 0
CLASSIFICATION_TYPE = U
NORAD_CAT_ID   = 27597
ELEMENT_SET_NO = 999
REV_AT_EPOCH   = 20971
BSTAR          = .19286824E-3
MEAN_MOTION_DOT = .445E-5
MEAN_MOTION_DDOT = 0

CCSDS_OMM_VERS = 2.0
CREATION_DATE  = 
ORIGINATOR     = 

OBJECT_NAME    = H-2A R/B
OBJECT_ID      = 2002-056E
CENTER_NAME    = EARTH
REF_FRAME      = TEME
TIME_SYSTEM    = UTC
MEAN_ELEMENT_THEORY = SGP/SGP4

EPOCH          = 2026-03-05T12:44:19.379904
MEAN_MOTION    = 14.33757611
ECCENTRICITY   = .0070248
INCLINATION    = 98.3196
RA_OF_ASC_NODE = 25.0548
ARG_OF_PERICENTER = 173.0125
MEAN_ANOMALY   = 303.1477

EPHEMERIS_TYPE = 0
CLASSIFICATION_TYPE = U
NORAD_CAT_ID   = 27601
ELEMENT_SET_NO = 999
REV_AT_EPOCH   = 21351
BSTAR          = .14827779E-3
MEAN_MOTION_DOT = .382E-5
MEAN_MOTION_DDOT = 0

CCSDS_OMM_VERS = 2.0
CREATION_DATE  = 
ORIGINATOR     = 

OBJECT_NAME    = CZ-4B R/B
OBJECT_ID      = 2003-049C
CENTER_NAME    = EARTH
REF_FRAME      = TEME
TIME_SYSTEM    = UTC
MEAN_ELEMENT_THEORY = SGP/SGP4

EPOCH          = 2026-03-05T14:25:50.921184
MEAN_MOTION    = 14.55015808
ECCENTRICITY   = .0047109
INCLINATION    = 98.6876
RA_OF_ASC_NODE = 59.3457
ARG_OF_PERICENTER = 243.6440
MEAN_ANOMALY   = 115.9914

EPHEMERIS_TYPE = 0
CLASSIFICATION_TYPE = U
NORAD_CAT_ID   = 28059
ELEMENT_SET_NO = 999
REV_AT_EPOCH   = 18600
BSTAR          = .14424224E-3
MEAN_MOTION_DOT = .578E-5
MEAN_MOTION_DDOT = 0

CCSDS_OMM_VERS = 2.0
CREATION_DATE  = 
ORIGINATOR     = 

OBJECT_NAME    = CZ-2C R/B
OBJECT_ID      = 2004-012C
CENTER_NAME    = EARTH
REF_FRAME      = TEME
TIME_SYSTEM    = UTC
MEAN_ELEMENT_THEORY = SGP/SGP4

EPOCH          = 2026-03-05T10:49:21.249696
MEAN_MOTION    = 15.63926274
ECCENTRICITY   = .00131363
INCLINATION    = 97.7238
RA_OF_ASC_NODE = 129.3437
ARG_OF_PERICENTER = 327.0449
MEAN_ANOMALY   = 32.9988

EPHEMERIS_TYPE = 0
CLASSIFICATION_TYPE = U
NORAD_CAT_ID   = 28222
ELEMENT_SET_NO = 999
REV_AT_EPOCH   = 20361
BSTAR          = .68298263E-3
MEAN_MOTION_DOT = .64739E-3
MEAN_MOTION_DDOT = 0

CCSDS_OMM_VERS = 2.0
CREATION_DATE  = 
ORIGINATOR     = 

OBJECT_NAME    = SL-16 R/B
OBJECT_ID      = 2004-021B
CENTER_NAME    = EARTH
REF_FRAME      = TEME
TIME_SYSTEM    = UTC
MEAN_ELEMENT_THEORY = SGP/SGP4

EPOCH          = 2026-03-05T13:37:39.933120
MEAN_MOTION    = 14.14599243
ECCENTRICITY   = .00038074
INCLINATION    = 70.9991
RA_OF_ASC_NODE = 241.1427
ARG_OF_PERICENTER = 17.4945
MEAN_ANOMALY   = 342.6308

EPHEMERIS_TYPE = 0
CLASSIFICATION_TYPE = U
NORAD_CAT_ID   = 28353
ELEMENT_SET_NO = 999
REV_AT_EPOCH   = 12225
BSTAR          = -.74388762E-4
MEAN_MOTION_DOT = -.191E-5
MEAN_MOTION_DDOT = 0

CCSDS_OMM_VERS = 2.0
CREATION_DATE  = 
ORIGINATOR     = 

OBJECT_NAME    = CZ-4B R/B
OBJECT_ID      = 2004-035C
CENTER_NAME    = EARTH
REF_FRAME      = TEME
TIME_SYSTEM    = UTC
MEAN_ELEMENT_THEORY = SGP/SGP4

EPOCH          = 2026-03-05T12:35:19.245984
MEAN_MOTION    = 15.28973488
ECCENTRICITY   = .00314295
INCLINATION    = 97.3499
RA_OF_ASC_NODE = 98.8166
ARG_OF_PERICENTER = 346.6915
MEAN_ANOMALY   = 13.3493

EPHEMERIS_TYPE = 0
CLASSIFICATION_TYPE = U
NORAD_CAT_ID   = 28415
ELEMENT_SET_NO = 999
REV_AT_EPOCH   = 17927
BSTAR          = .34137757E-3
MEAN_MOTION_DOT = .9675E-4
MEAN_MOTION_DDOT = 0

CCSDS_OMM_VERS = 2.0
CREATION_DATE  = 
ORIGINATOR     = 

OBJECT_NAME    = CZ-2C R/B
OBJECT_ID      = 2004-046B
CENTER_NAME    = EARTH
REF_FRAME      = TEME
TIME_SYSTEM    = UTC
MEAN_ELEMENT_THEORY = SGP/SGP4

EPOCH          = 2026-03-05T04:59:58.518816
MEAN_MOTION    = 14.26990318
ECCENTRICITY   = .01396229
INCLINATION    = 98.1987
RA_OF_ASC_NODE = 339.4710
ARG_OF_PERICENTER = 167.6551
MEAN_ANOMALY   = 192.8111

EPHEMERIS_TYPE = 0
CLASSIFICATION_TYPE = U
NORAD_CAT_ID   = 28480
ELEMENT_SET_NO = 999
REV_AT_EPOCH   = 10786
BSTAR          = .73366351E-4
MEAN_MOTION_DOT = .157E-5
MEAN_MOTION_DDOT = 0

CCSDS_OMM_VERS = 2.0
CREATION_DATE  = 
ORIGINATOR     = 

OBJECT_NAME    = ARIANE 5 R/B
OBJECT_ID      = 2004-049H
CENTER_NAME    = EARTH
REF_FRAME      = TEME
TIME_SYSTEM    = UTC
MEAN_ELEMENT_THEORY = SGP/SGP4

EPOCH          = 2026-03-05T10:56:23.359488
MEAN_MOTION    = 14.85257082
ECCENTRICITY   = .00842386
INCLINATION    = 98.2618
RA_OF_ASC_NODE = 232.7545
ARG_OF_PERICENTER = 5.6646
MEAN_ANOMALY   = 354.5500

EPHEMERIS_TYPE = 0
CLASSIFICATION_TYPE = U
NORAD_CAT_ID   = 28499
ELEMENT_SET_NO = 999
REV_AT_EPOCH   = 14516
BSTAR          = .13086918E-3
MEAN_MOTION_DOT = .1132E-4
MEAN_MOTION_DDOT = 0

CCSDS_OMM_VERS = 2.0
CREATION_DATE  = 
ORIGINATOR     = 

OBJECT_NAME    = CZ-2D R/B
OBJECT_ID      = 2005-024B
CENTER_NAME    = EARTH
REF_FRAME      = TEME
TIME_SYSTEM    = UTC
MEAN_ELEMENT_THEORY = SGP/SGP4

EPOCH          = 2026-03-05T14:29:38.793408
MEAN_MOTION    = 15.59717554
ECCENTRICITY   = .00064295
INCLINATION    = 97.3595
RA_OF_ASC_NODE = 79.6011
ARG_OF_PERICENTER = 57.0193
MEAN_ANOMALY   = 303.1681

EPHEMERIS_TYPE = 0
CLASSIFICATION_TYPE = U
NORAD_CAT_ID   = 28738
ELEMENT_SET_NO = 999
REV_AT_EPOCH   = 13914
BSTAR          = .57191284E-3
MEAN_MOTION_DOT = .45815E-3
MEAN_MOTION_DDOT = 0

